NORAD_CAT_ID,OBJECT_NAME,OBJECT_TYPE,EPOCH,MEAN_MOTION,ECCENTRICITY,INCLINATION,RA_OF_ASC_NODE,ARG_OF_PERICENTER,MEAN_ANOMALY,BSTAR,MEAN_MOTION_DOT,MEAN_MOTION_DDOT,TLE_LINE0,TLE_LINE1,TLE_LINE2,SEMIMAJOR_AXIS,PERIOD,APOGEE,PERIGEE,DECAYED
51758.0,STARLINK-3458,PAYLOAD,2022-07-05 22:00:00,15.08822884,0.0001589,53.2167,217.0443,61.0466,1.545,0.0023047,0.00036565,0.0,0 STARLINK-3458,1 51758U 22016AW  22186.91667824  .00036565  00000-0  23047-2 0  9992,2 51758  53.2167 217.0443 0001589  61.0466   1.5450 15.08822884  1304,6917.933000000001,95.439,540.8969999999998,538.698,0.0
51758.0,STARLINK-3458,PAYLOAD,2022-07-06 06:00:00,15.08862045,0.0001692,53.2169,215.549,59.5162,14.6608,-0.0020618,-0.00032972,0.0,0 STARLINK-3458,1 51758U 22016AW  22187.25001157 -.00032972  00000-0 -20618-2 0  9992,2 51758  53.2169 215.5490 0001692  59.5162  14.6608 15.08862045 22183,6917.813,95.436,540.849,538.508,0.0
51758.0,STARLINK-3458,PAYLOAD,2022-07-06 14:00:01,15.08836156,0.0001749,53.2165,214.0533,53.6826,32.1023,0.0014163,0.00022322,0.0,0 STARLINK-3458,1 51758U 22016AW  22187.58334491  .00022322  00000-0  14163-2 0  9992,2 51758  53.2165 214.0533 0001749  53.6826  32.1023 15.08836156  1307,6917.892,95.438,540.967,538.547,0.0
51758.0,STARLINK-3458,PAYLOAD,2022-07-06 18:23:28,15.08838493,0.0001667,53.2172,213.2312,59.3912,300.7244,4.9888e-05,5.06e-06,0.0,0 STARLINK-3458,1 51758U 22016AW  22187.76630062  .00000506  00000-0  49888-4 0  9999,2 51758  53.2172 213.2312 0001667  59.3912 300.7244 15.08838493 22262,6917.885,95.438,540.903,538.597,0.0
51758.0,STARLINK-3458,PAYLOAD,2022-07-07 11:52:42,15.08842713,0.0001682,53.2172,209.9602,59.4014,300.7144,3.4652e-05,2.64e-06,0.0,0 STARLINK-3458,1 51758U 22016AW  22188.49493778  .00000264  00000-0  34652-4 0  9995,2 51758  53.2172 209.9602 0001682  59.4014 300.7144 15.08842713 22378,6917.871999999999,95.437,540.901,538.5740000000002,0.0
51758.0,STARLINK-3458,PAYLOAD,2022-07-07 22:00:00,15.08801448,0.000149,53.2163,208.0664,61.0272,71.1785,0.0024002,0.00038078,0.0,0 STARLINK-3458,1 51758U 22016AW  22188.91667824  .00038078  00000-0  24002-2 0  9997,2 51758  53.2163 208.0664 0001490  61.0272  71.1785 15.08801448 22435,6917.998000000001,95.44,540.894,538.832,0.0
51758.0,STARLINK-3458,PAYLOAD,2022-07-08 11:43:30,15.08834172,0.000169,53.2173,205.5,59.0547,301.0611,-6.2448e-05,-1.282e-05,0.0,0 STARLINK-3458,1 51758U 22016AW  22189.48854657 -.00001282  00000-0 -62448-4 0  9999,2 51758  53.2173 205.5000 0001690  59.0547 301.0611 15.08834172 22529,6917.898,95.438,540.932,538.594,0.0
51758.0,STARLINK-3458,PAYLOAD,2022-07-08 22:00:01,15.08799051,0.0001602,53.2167,203.5834,60.9105,106.1019,0.0015187,0.00023938,0.0,0 STARLINK-3458,1 51758U 22016AW  22189.91668981  .00023938  00000-0  15187-2 0  9996,2 51758  53.2167 203.5834 0001602  60.9105 106.1019 15.08799051  1304,6918.005999999999,95.44,540.979,538.762,0.0
51758.0,STARLINK-3458,PAYLOAD,2022-07-09 14:00:01,15.08836937,0.0001708,53.2151,200.5862,54.2308,135.8791,-0.00029317,-4.951e-05,0.0,0 STARLINK-3458,1 51758U 22016AW  22190.58334491 -.00004951  00000-0 -29317-3 0  9994,2 51758  53.2151 200.5862 0001708  54.2308 135.8791 15.08836937  1304,6917.89,95.438,540.936,538.573,0.0
51758.0,STARLINK-3458,PAYLOAD,2022-07-09 16:00:00,15.08851333,0.0001662,53.2152,200.2116,55.869,227.1345,-0.002421,-0.00038624,0.0,0 STARLINK-3458,1 51758U 22016AW  22190.66667824 -.00038624  00000-0 -24210-2 0  9992,2 51758  53.2152 200.2116 0001662  55.8690 227.1345 15.08851333 22696,6917.846,95.437,540.86,538.561,0.0
51758.0,STARLINK-3458,PAYLOAD,2022-07-09 20:00:01,15.08818954,0.0001581,53.2153,199.4625,60.063,48.7472,0.0015185,0.00023948,0.0,0 STARLINK-3458,1 51758U 22016AW  22190.83334491  .00023948  00000-0  15185-2 0  9994,2 51758  53.2153 199.4625 0001581  60.0630  48.7472 15.08818954  1308,6917.945,95.439,540.903,538.716,0.0
51758.0,STARLINK-3458,PAYLOAD,2022-07-10 06:00:00,15.08845482,0.0001753,53.2154,197.5937,57.8312,155.4604,-0.0013062,-0.00021019,0.0,0 STARLINK-3458,1 51758U 22016AW  22191.25001157 -.00021019  00000-0 -13062-2 0  9992,2 51758  53.2154 197.5937 0001753  57.8312 155.4604 15.08845482 22780,6917.864000000001,95.437,540.941,538.516,0.0
51758.0,STARLINK-3458,PAYLOAD,2022-07-10 14:00:01,15.08847339,0.0001779,53.2149,196.0969,54.4526,170.4268,-0.00084494,-0.00013713,0.0,0 STARLINK-3458,1 51758U 22016AW  22191.58334491 -.00013713  00000-0 -84494-3 0  9998,2 51758  53.2149 196.0969 0001779  54.4526 170.4268 15.08847339  1302,6917.858,95.437,540.9540000000002,538.492,0.0
51758.0,STARLINK-3458,PAYLOAD,2022-07-10 22:00:00,15.08823018,0.0001696,53.215,194.5988,61.2181,175.2667,0.0023909,0.00037951,0.0,0 STARLINK-3458,1 51758U 22016AW  22191.91667824  .00037951  00000-0  23909-2 0  9995,2 51758  53.2150 194.5988 0001696  61.2181 175.2667 15.08823018 22889,6917.932,95.439,540.971,538.624,0.0
51758.0,STARLINK-3458,PAYLOAD,2022-07-11 06:00:00,15.08822463,0.0001761999999999,53.216,193.1073,54.6684,193.3555,-0.0011488,-0.00018516,0.0,0 STARLINK-3458,1 51758U 22016AW  22192.25001157 -.00018516  00000-0 -11488-2 0  9991,2 51758  53.2160 193.1073 0001762  54.6684 193.3555 15.08822463 22934,6917.934,95.439,541.018,538.58,0.0
51758.0,STARLINK-3458,PAYLOAD,2022-07-11 14:00:01,15.08831718,0.0001764,53.215,191.6076,52.5015,207.0866,-0.0013644,-0.00021932,0.0,0 STARLINK-3458,1 51758U 22016AW  22192.58334491 -.00021932  00000-0 -13644-2 0  9999,2 51758  53.2150 191.6076 0001764  52.5015 207.0866 15.08831718  1305,6917.906,95.438,540.991,538.55,0.0
51758.0,STARLINK-3458,PAYLOAD,2022-07-11 22:00:00,15.08804411,0.0001686,53.2153,190.1097,59.4877,211.6829,0.0024372,0.00038676,0.0,0 STARLINK-3458,1 51758U 22016AW  22192.91667824  .00038676  00000-0  24372-2 0  9996,2 51758  53.2153 190.1097 0001686  59.4877 211.6829 15.08804411  1300,6917.989000000001,95.44,541.021,538.688,0.0
51758.0,STARLINK-3458,PAYLOAD,2022-07-12 14:00:01,15.08847272,0.0001827,53.2153,187.1183,53.5695,240.7499,-0.0016656,-0.00026704,0.0,0 STARLINK-3458,1 51758U 22016AW  22193.58334491 -.00026704  00000-0 -16656-2 0  9998,2 51758  53.2153 187.1183 0001827  53.5695 240.7499 15.08847272 23135,6917.858,95.437,540.987,538.4590000000002,0.0
51758.0,STARLINK-3458,PAYLOAD,2022-07-12 22:00:00,15.08819719,0.0001747,53.2157,185.6205,60.8251,245.0926,0.0025671,0.00040782,0.0,0 STARLINK-3458,1 51758U 22016AW  22193.91667824  .00040782  00000-0  25671-2 0  9991,2 51758  53.2157 185.6205 0001747  60.8251 245.0926 15.08819719  1300,6917.941999999999,95.439,541.016,538.599,0.0
51758.0,STARLINK-3458,PAYLOAD,2022-07-13 06:00:00,15.08846025,0.0001899,53.2158,184.1258,55.9699,261.5393,-0.00059426,-9.735e-05,0.0,0 STARLINK-3458,1 51758U 22016AW  22194.25001157 -.00009735  00000-0 -59426-3 0  9991,2 51758  53.2158 184.1258 0001899  55.9699 261.5393 15.08846025 23239,6917.861999999999,95.437,541.0409999999998,538.413,0.0
51758.0,STARLINK-3458,PAYLOAD,2022-07-13 14:00:01,15.08863046,0.0001856,53.2157,182.629,54.9745,274.1264,-0.0019375,-0.00031011,0.0,0 STARLINK-3458,1 51758U 22016AW  22194.58334491 -.00031011  00000-0 -19375-2 0  9997,2 51758  53.2157 182.6290 0001856  54.9745 274.1264 15.08863046  1304,6917.81,95.436,540.9590000000002,538.391,0.0
51758.0,STARLINK-3458,PAYLOAD,2022-07-13 22:00:00,15.08833206,0.0001771,53.2162,181.1314,62.3352,278.3754,0.0023571,0.00037418,0.0,0 STARLINK-3458,1 51758U 22016AW  22194.91667824  .00037418  00000-0  23571-2 0  9991,2 51758  53.2162 181.1314 0001771  62.3352 278.3754 15.08833206  1309,6917.901,95.438,540.991,538.5409999999998,0.0
51758.0,STARLINK-3458,PAYLOAD,2022-07-14 08:00:01,15.08841241,0.0001926,53.2163,179.2628,56.2658,28.9589,0.0014688,0.00023166,0.0,0 STARLINK-3458,1 51758U 22016AW  22195.33334491  .00023166  00000-0  14688-2 0  9993,2 51758  53.2163 179.2628 0001926  56.2658  28.9589 15.08841241 23407,6917.877,95.437,541.0740000000002,538.409,0.0
51758.0,STARLINK-3458,PAYLOAD,2022-07-14 14:00:01,15.08872534,0.0001855,53.2161,178.1397,56.7652,307.1566,-0.0021535,-0.00034429,0.0,0 STARLINK-3458,1 51758U 22016AW  22195.58334491 -.00034429  00000-0 -21535-2 0  9995,2 51758  53.2161 178.1397 0001855  56.7652 307.1566 15.08872534  1307,6917.781,95.435,540.929,538.363,0.0
51758.0,STARLINK-3458,PAYLOAD,2022-07-14 22:00:00,15.08859056,0.0001729,53.2164,176.6423,63.6009,311.9411,-0.0004755,-7.852e-05,0.0,0 STARLINK-3458,1 51758U 22016AW  22195.91667824 -.00007852  00000-0 -47550-3 0  9997,2 51758  53.2164 176.6423 0001729  63.6009 311.9411 15.08859056  1302,6917.821999999999,95.436,540.883,538.491,0.0
51758.0,STARLINK-3458,PAYLOAD,2022-07-15 06:00:00,15.08836124,0.0001831,53.2164,175.1477,57.0533,330.1090000000001,-0.00040096,-6.663e-05,0.0,0 STARLINK-3458,1 51758U 22016AW  22196.25001157 -.00006663  00000-0 -40096-3 0  9993,2 51758  53.2164 175.1477 0001831  57.0533 330.1090 15.08836124 23545,6917.892,95.438,541.024,538.491,0.0
51758.0,STARLINK-3458,PAYLOAD,2022-07-15 14:00:01,15.08857429,0.0001768,53.2162,173.6506,57.6521,341.0977,-0.0019687,-0.00031499,0.0,0 STARLINK-3458,1 51758U 22016AW  22196.58334491 -.00031499  00000-0 -19687-2 0  9995,2 51758  53.2162 173.6506 0001768  57.6521 341.0977 15.08857429  1307,6917.8269999999975,95.436,540.915,538.469,0.0
51758.0,STARLINK-3458,PAYLOAD,2022-07-15 22:00:00,15.08836981,0.0001709,53.2164,172.1535,64.8768,345.4742,0.0017698,0.00027988,0.0,0 STARLINK-3458,1 51758U 22016AW  22196.91667824  .00027988  00000-0  17698-2 0  9997,2 51758  53.2164 172.1535 0001709  64.8768 345.4742 15.08836981  1301,6917.89,95.438,540.937,538.572,0.0
51758.0,STARLINK-3458,PAYLOAD,2022-07-16 06:00:00,15.08850023,0.0001838,53.2164,170.6589,58.7335,3.225,-0.0001351,-2.438e-05,0.0,0 STARLINK-3458,1 51758U 22016AW  22197.25001157 -.00002438  00000-0 -13510-3 0  9991,2 51758  53.2164 170.6589 0001838  58.7335   3.2250 15.08850023 23690,6917.85,95.437,540.986,538.443,0.0
